COSMOS 2361 [-]         
1 25590U 98076A   22363.43108845  .00000054  00000+0  41748-4 0  9996
2 25590  82.9343  62.0385 0032077  28.9466 341.6484 13.73038371202998
COSMOS 2378 [-]         
1 26818U 01023A   22363.49295887  .00000054  00000+0  41086-4 0  9990
2 26818  82.9281  79.6799 0032244 334.0396  37.0449 13.73982129 81020
COSMOS 2389 [-]         
1 27436U 02026A   22363.37189877  .00000056  00000+0  42204-4 0  9994
2 27436  82.9505  25.7647 0046177 190.1683 181.0324 13.74991151 33159
COSMOS 2398 [-]         
1 27818U 03023A   22363.42244770  .00000057  00000+0  45690-4 0  9999
2 27818  82.9484 347.9532 0030238 228.8416 283.8004 13.72226130980125
COSMOS 2407 [+]         
1 28380U 04028A   22363.54810483  .00000073  00000+0  58978-4 0  9994
2 28380  82.9610 291.9797 0038842 190.0144 343.5020 13.76130837925784
COSMOS 2414 [+]         
1 28521U 05002A   22363.50874497  .00000078  00000+0  52804-4 0  9992
2 28521  82.9502 280.7527 0039930 339.9765  19.9829 13.87677091908298
COSMOS 2429 [-]         
1 32052U 07038A   22363.39674270  .00000048  00000+0  33779-4 0  9998
2 32052  82.9806  58.6833 0038840 167.9777 192.2315 13.74978826767690
COSMOS 2454 [-]         
1 35635U 09039A   22363.52287726  .00000070  00000+0  44564-4 0  9991
2 35635  82.9566 266.7251 0017952 281.7927 251.8528 13.89706269681590
COSMOS 2463 [+]         
1 36519U 10017A   22363.50548616  .00000060  00000+0  49266-4 0  9990
2 36519  82.9609  99.5546 0036995  43.5780 327.8264 13.71488575634438
